[{"OBJECT_NAME":"STARLINK-4020","OBJECT_ID":"2022-053AZ","EPOCH":"2026-03-09T11:25:22.360800","MEAN_MOTION":15.08833448,"ECCENTRICITY":0.00013167,"INCLINATION":53.2167,"RA_OF_ASC_NODE":135.092,"ARG_OF_PERICENTER":101.7378,"MEAN_ANOMALY":258.3762,"EPHEMERIS_TYPE":0,"CLASSIFICATION_TYPE":"U","NORAD_CAT_ID":52703,"ELEMENT_SET_NO":999,"REV_AT_EPOCH":21000,"BSTAR":-3.5370036e-5,"MEAN_MOTION_DOT":-8.51e-6,"MEAN_MOTION_DDOT":0},{"OBJECT_NAME":"PEGASUS DEB","OBJECT_ID":"1994-029BC","EPOCH":"2026-03-09T22:00:19.479168","MEAN_MOTION":15.02669201,"ECCENTRICITY":0.00619411,"INCLINATION":81.9229,"RA_OF_ASC_NODE":10.1044,"ARG_OF_PERICENTER":202.7728,"MEAN_ANOMALY":222.9696,"EPHEMERIS_TYPE":0,"CLASSIFICATION_TYPE":"U","NORAD_CAT_ID":24007,"ELEMENT_SET_NO":999,"REV_AT_EPOCH":60998,"BSTAR":0.00034526552,"MEAN_MOTION_DOT":4.826e-5,"MEAN_MOTION_DDOT":0}]
